{
  "type": "FeatureCollection",
  "features": [
    {
      "type": "Feature",
      "properties": {
        "norad_id": 35744,
        "name": "IRIDIUM 33 DEB",
        "group": "iridium-33-debris",
        "lat": 64.85703145858203,
        "lon": 141.37675202529468,
        "alt_km": 656.7368177860162,
        "timestamp": "2025-12-04T07:39:36.517618+00:00",
        "meta_object_name": "IRIDIUM 33 DEB",
        "meta_object_id": "1997-051RX",
        "meta_epoch": "2025-12-03T16:26:33.199008",
        "meta_mean_motion": 14.70784036,
        "meta_eccentricity": 0.00192992,
        "meta_inclination": 86.3279,
        "meta_ra_of_asc_node": 329.5276,
        "meta_arg_of_pericenter": 226.2399,
        "meta_mean_anomaly": 133.722,
        "meta_ephemeris_type": 0,
        "meta_classification_type": "U",
        "meta_norad_cat_id": 35744,
        "meta_element_set_no": 999,
        "meta_rev_at_epoch": 87198,
        "meta_bstar": 0.0017711667,
        "meta_mean_motion_dot": 0.0001087,
        "meta_mean_motion_ddot": 0,
        "tle_line1": "1 35744U 97051RX  25337.68510647  .00010870  00000+0  17712-2 0  9997",
        "tle_line2": "2 35744  86.3279 329.5276 0019299 226.2399 133.7220 14.70784036871988"
      },
      "geometry": {
        "type": "Point",
        "coordinates": [
          141.37675202529468,
          64.85703145858203
        ]
      }
    },
    {
      "type": "Feature",
      "properties": {
        "norad_id": 35797,
        "name": "IRIDIUM 33 DEB",
        "group": "iridium-33-debris",
        "lat": -29.598306572231056,
        "lon": 155.92815469539678,
        "alt_km": 620.9393268838712,
        "timestamp": "2025-12-04T07:39:36.517628+00:00",
        "meta_object_name": "IRIDIUM 33 DEB",
        "meta_object_id": "1997-051SF",
        "meta_epoch": "2025-12-03T06:24:58.106016",
        "meta_mean_motion": 14.82331102,
        "meta_eccentricity": 0.0011684,
        "meta_inclination": 86.3357,
        "meta_ra_of_asc_node": 334.3248,
        "meta_arg_of_pericenter": 181.5296,
        "meta_mean_anomaly": 178.5893,
        "meta_ephemeris_type": 0,
        "meta_classification_type": "U",
        "meta_norad_cat_id": 35797,
        "meta_element_set_no": 999,
        "meta_rev_at_epoch": 87200,
        "meta_bstar": 0.0022863,
        "meta_mean_motion_dot": 0.00018353,
        "meta_mean_motion_ddot": 0,
        "tle_line1": "1 35797U 97051SF  25337.26733919  .00018353  00000+0  22863-2 0  9995",
        "tle_line2": "2 35797  86.3357 334.3248 0011684 181.5296 178.5893 14.82331102872007"
      },
      "geometry": {
        "type": "Point",
        "coordinates": [
          155.92815469539678,
          -29.598306572231056
        ]
      }
    },
    {
      "type": "Feature",
      "properties": {
        "norad_id": 35806,
        "name": "IRIDIUM 33 DEB",
        "group": "iridium-33-debris",
        "lat": -21.000108821900472,
        "lon": -154.25596063522028,
        "alt_km": 710.5658155575084,
        "timestamp": "2025-12-04T07:39:36.517638+00:00",
        "meta_object_name": "IRIDIUM 33 DEB",
        "meta_object_id": "1997-051SQ",
        "meta_epoch": "2025-11-21T22:04:29.472384",
        "meta_mean_motion": 14.57052239,
        "meta_eccentricity": 0.00159672,
        "meta_inclination": 86.3448,
        "meta_ra_of_asc_node": 29.7928,
        "meta_arg_of_pericenter": 137.8294,
        "meta_mean_anomaly": 222.4146,
        "meta_ephemeris_type": 0,
        "meta_classification_type": "U",
        "meta_norad_cat_id": 35806,
        "meta_element_set_no": 999,
        "meta_rev_at_epoch": 86021,
        "meta_bstar": 0.0011489261,
        "meta_mean_motion_dot": 5.199e-05,
        "meta_mean_motion_ddot": 0,
        "tle_line1": "1 35806U 97051SQ  25325.91978556  .00005199  00000+0  11489-2 0  9999",
        "tle_line2": "2 35806  86.3448  29.7928 0015967 137.8294 222.4146 14.57052239860212"
      },
      "geometry": {
        "type": "Point",
        "coordinates": [
          -154.25596063522028,
          -21.000108821900472
        ]
      }
    },
    {
      "type": "Feature",
      "properties": {
        "norad_id": 35809,
        "name": "IRIDIUM 33 DEB",
        "group": "iridium-33-debris",
        "lat": 12.325529424880724,
        "lon": -20.01248777655649,
        "alt_km": 645.4290729568929,
        "timestamp": "2025-12-04T07:39:36.517646+00:00",
        "meta_object_name": "IRIDIUM 33 DEB",
        "meta_object_id": "1997-051ST",
        "meta_epoch": "2025-12-01T17:44:51.390816",
        "meta_mean_motion": 14.75313912,
        "meta_eccentricity": 0.00099663,
        "meta_inclination": 86.3281,
        "meta_ra_of_asc_node": 340.3571,
        "meta_arg_of_pericenter": 290.7283,
        "meta_mean_anomaly": 69.2867,
        "meta_ephemeris_type": 0,
        "meta_classification_type": "U",
        "meta_norad_cat_id": 35809,
        "meta_element_set_no": 999,
        "meta_rev_at_epoch": 86645,
        "meta_bstar": 0.0015973304,
        "meta_mean_motion_dot": 0.00010859,
        "meta_mean_motion_ddot": 0,
        "tle_line1": "1 35809U 97051ST  25335.73948369  .00010859  00000+0  15973-2 0  9993",
        "tle_line2": "2 35809  86.3281 340.3571 0009966 290.7283  69.2867 14.75313912866452"
      },
      "geometry": {
        "type": "Point",
        "coordinates": [
          -20.01248777655649,
          12.325529424880724
        ]
      }
    },
    {
      "type": "Feature",
      "properties": {
        "norad_id": 35846,
        "name": "IRIDIUM 33 DEB",
        "group": "iridium-33-debris",
        "lat": 55.88805052605936,
        "lon": 67.80366115391463,
        "alt_km": 752.4447352783309,
        "timestamp": "2025-12-04T07:39:36.517656+00:00",
        "meta_object_name": "IRIDIUM 33 DEB",
        "meta_object_id": "1997-051SW",
        "meta_epoch": "2025-11-15T14:04:07.017312",
        "meta_mean_motion": 14.42992821,
        "meta_eccentricity": 0.00163082,
        "meta_inclination": 86.3745,
        "meta_ra_of_asc_node": 70.4244,
        "meta_arg_of_pericenter": 263.1259,
        "meta_mean_anomaly": 96.8086,
        "meta_ephemeris_type": 0,
        "meta_classification_type": "U",
        "meta_norad_cat_id": 35846,
        "meta_element_set_no": 999,
        "meta_rev_at_epoch": 70937,
        "meta_bstar": 0.0011049939,
        "meta_mean_motion_dot": 3.722e-05,
        "meta_mean_motion_ddot": 0,
        "tle_line1": "1 35846U 97051SW  25319.58619233  .00003722  00000+0  11050-2 0  9997",
        "tle_line2": "2 35846  86.3745  70.4244 0016308 263.1259  96.8086 14.42992821709373"
      },
      "geometry": {
        "type": "Point",
        "coordinates": [
          67.80366115391463,
          55.88805052605936
        ]
      }
    },
    {
      "type": "Feature",
      "properties": {
        "norad_id": 35848,
        "name": "IRIDIUM 33 DEB",
        "group": "iridium-33-debris",
        "lat": -56.04026693856504,
        "lon": -154.71271720335739,
        "alt_km": 637.101796278942,
        "timestamp": "2025-12-04T07:39:36.517666+00:00",
        "meta_object_name": "IRIDIUM 33 DEB",
        "meta_object_id": "1997-051SY",
        "meta_epoch": "2025-12-01T10:21:45.439488",
        "meta_mean_motion": 14.7824162,
        "meta_eccentricity": 0.00067103,
        "meta_inclination": 86.3925,
        "meta_ra_of_asc_node": 21.2088,
        "meta_arg_of_pericenter": 240.9704,
        "meta_mean_anomaly": 119.0844,
        "meta_ephemeris_type": 0,
        "meta_classification_type": "U",
        "meta_norad_cat_id": 35848,
        "meta_element_set_no": 999,
        "meta_rev_at_epoch": 66523,
        "meta_bstar": 0.0018930249,
        "meta_mean_motion_dot": 0.00013775,
        "meta_mean_motion_ddot": 0,
        "tle_line1": "1 35848U 97051SY  25335.43177592  .00013775  00000+0  18930-2 0  9991",
        "tle_line2": "2 35848  86.3925  21.2088 0006710 240.9704 119.0844 14.78241620665238"
      },
      "geometry": {
        "type": "Point",
        "coordinates": [
          -154.71271720335739,
          -56.04026693856504
        ]
      }
    },
    {
      "type": "Feature",
      "properties": {
        "norad_id": 35850,
        "name": "IRIDIUM 33 DEB",
        "group": "iridium-33-debris",
        "lat": -15.971032411552182,
        "lon": 169.1241866755876,
        "alt_km": 633.9240817758964,
        "timestamp": "2025-12-04T07:39:36.517675+00:00",
        "meta_object_name": "IRIDIUM 33 DEB",
        "meta_object_id": "1997-051TA",
        "meta_epoch": "2025-12-02T07:40:10.229376",
        "meta_mean_motion": 14.7843662,
        "meta_eccentricity": 0.0007989,
        "meta_inclination": 86.3497,
        "meta_ra_of_asc_node": 348.9861,
        "meta_arg_of_pericenter": 227.4621,
        "meta_mean_anomaly": 132.5925,
        "meta_ephemeris_type": 0,
        "meta_classification_type": "U",
        "meta_norad_cat_id": 35850,
        "meta_element_set_no": 999,
        "meta_rev_at_epoch": 71203,
        "meta_bstar": 0.0019125,
        "meta_mean_motion_dot": 0.00013983,
        "meta_mean_motion_ddot": 0,
        "tle_line1": "1 35850U 97051TA  25336.31956284  .00013983  00000+0  19125-2 0  9993",
        "tle_line2": "2 35850  86.3497 348.9861 0007989 227.4621 132.5925 14.78436620712037"
      },
      "geometry": {
        "type": "Point",
        "coordinates": [
          169.1241866755876,
          -15.971032411552182
        ]
      }
    }
  ]
}